CRE (WAAS/PRN 138)      
1 28868U 05036A   24080.49216194 -.00000086  00000+0  00000+0 0  9999
2 28868   2.2031  86.6848 0002842 300.3339 221.3518  1.00272512 38248
IOR-W (EGNOS/PRN 126)   
1 28899U 05044A   24080.25674274 -.00000271  00000+0  00000+0 0  9999
2 28899   4.0929  42.1049 0002270 325.6204  46.4634  1.00271596 67310
QZS-1 (QZSS/PRN 183)    
1 37158U 10045A   24073.23406660  .00000004  00000+0  00000+0 0  9999
2 37158  43.1220 125.5190 0001350 194.6497 167.1300  0.87715015 49151
GSAT-8 (GAGAN/PRN 127)  
1 37605U 11022A   24080.17966069  .00000071  00000+0  00000+0 0  9991
2 37605   0.0292 105.9565 0006485 190.9456   1.0245  1.00273208 45008
LUCH 5A (SDCM/PRN 140)  
1 37951U 11074B   24080.31646639 -.00000058  00000+0  00000+0 0  9992
2 37951   6.6554  86.3875 0002901 281.0149  91.7300  1.00271189 44846
SES-5 (EGNOS/PRN 136)   
1 38652U 12036A   24080.11716014  .00000020  00000+0  00000+0 0  9991
2 38652   0.0422 349.8577 0002146   0.9768 234.4377  1.00272240 36276
GSAT-10 (GAGAN/PRN 128) 
1 38779U 12051B   24080.07340895 -.00000179  00000+0  00000+0 0  9999
2 38779   0.0312 256.8406 0003707  26.6287   4.0428  1.00273006 41890
LUCH 5B (SDCM/PRN 125)  
1 38977U 12061A   24078.67451869 -.00000146  00000+0  00000+0 0  9991
2 38977   8.6910  57.4790 0000413 192.7429 152.9769  1.00271717 41385
ASTRA 5B (EGNOS/PRN 123)
1 39617U 14011B   24080.10604882  .00000124  00000+0  00000+0 0  9991
2 39617   0.0873 301.8290 0003943  32.6337 265.3055  1.00271201 36450
LUCH 5V (SDCM/PRN 141)  
1 39727U 14023A   24080.00500687 -.00000281  00000+0  00000+0 0  9998
2 39727   3.0766  76.5284 0002503 283.0591 274.9802  1.00272160 36147
GSAT-15 (GAGAN/PRN 139) 
1 41028U 15065A   24080.20535424 -.00000271  00000+0  00000+0 0  9990
2 41028   0.0233 171.4803 0002030 199.8377 334.3462  1.00268711 30585
E 117 W B (WAAS/PRN 131)
1 41589U 16038B   24080.50723619 -.00000024  00000+0  00000+0 0  9997
2 41589   0.0425   1.2606 0000483  81.0721 161.7916  1.00272710 28459
SES-15 (WAAS/PRN 133)   
1 42709U 17026A   24078.93845153  .00000046  00000+0  00000+0 0  9995
2 42709   0.0382  35.7294 0000529 287.1712  62.7337  1.00270432 25915
QZS-2 (QZSS/PRN 184)    
1 42738U 17028A   24078.34619775 -.00000172  00000+0  00000+0 0  9994
2 42738  40.7225 255.0527 0744758 270.3784 276.2681  1.00260618 24909
QZS-3 (QZSS/PRN 189)    
1 42917U 17048A   24080.55169719 -.00000361  00000+0  00000+0 0  9999
2 42917   0.0619 151.6673 0001268 181.1303 171.3957  1.00273777 24052
QZS-4 (QZSS/PRN 185)    
1 42965U 17062A   24077.31379905 -.00000350  00000+0  00000+0 0  9996
2 42965  40.5541 353.9545 0749596 269.9109 163.9118  1.00279427 23575
BEIDOU-3 G1 (PRN 130)   
1 43683U 18085A   24080.50188382 -.00000290  00000+0  00000+0 0  9995
2 43683   1.9755 113.2800 0002443 319.1198  66.7856  1.00272548 19853
BEIDOU-3 G2 (PRN 144)   
1 45344U 20017A   24080.07340895 -.00000153  00000+0  00000+0 0  9998
2 45344   2.2136  25.9254 0001921 291.5748 327.0538  1.00272194 15046
BEIDOU-3 G3 (PRN 143)   
1 45807U 20040A   24080.13174403 -.00000367  00000+0  00000+0 0  9992
2 45807   0.6485  28.3020 0007446 298.9953   8.7128  1.00278000 13851
GALAXY 30 (WAAS/PRN 135)
1 46114U 20056C   24080.14980529  .00000024  00000+0  00000+0 0  9995
2 46114   0.0164 144.3539 0001820 223.8112  98.9122  1.00272833 13087
